{"type":"FeatureCollection","features":[{"type":"Feature","geometry":{"type":"Polygon","coordinates":[[[79.8543,10.9646],[79.8526,10.9234],[79.8302,10.9255],[79.8118,10.937],[79.8073,10.9461],[79.8053,10.9501],[79.8114,10.9508],[79.8105,10.9627],[79.8543,10.9646]]]},"properties":{"STATE":"PUDUCHERRY","DISTRICT":"KARAIKAL","AC_NAME":"KARAIKAL NORTH","AC":"AC","YEAR":2026.0,"RES":"GEN","ELECTORS":33471.0,"VOTERS":29208.0,"TURNOUT":87.26,"MARGIN":2653.0,"MARGIN_PERCENTAGE":9.08,"PARTY_RANK1":"AINRC","PARTY_RANK2":"INC","PARTY_RANK3":"TVK","PARTY_RANK4":"IND","CANDIDATE_RANK1":"P.R.N. THIRUMURUGAN","CANDIDATE_RANK2":"A.M. RANJITH","CANDIDATE_RANK3":"A. VENGADESH","CANDIDATE_RANK4":"MURUGANANDAM","VOTES_RANK1":12731.0,"VOTES_RANK2":10078.0,"VOTES_RANK3":5033.0,"VOTES_RANK4":516.0,"VOTES_RANK1_PERCENTAGE":43.59,"VOTES_RANK2_PERCENTAGE":34.5,"VOTES_RANK3_PERCENTAGE":17.23,"VOTES_RANK4_PERCENTAGE":1.77,"COLOR":"#ffc000","ID":27894}},{"type":"Feature","geometry":{"type":"Polygon","coordinates":[[[79.8526,10.9234],[79.8532,10.9152],[79.8463,10.9149],[79.8425,10.9082],[79.8343,10.9081],[79.8303,10.9021],[79.808,10.9015],[79.8043,10.8969],[79.8066,10.9108],[79.8037,10.9121],[79.8075,10.9268],[79.8046,10.9293],[79.8101,10.9326],[79.807,10.9375],[79.8118,10.937],[79.8302,10.9255],[79.8526,10.9234]]]},"properties":{"STATE":"PUDUCHERRY","DISTRICT":"KARAIKAL","AC_NAME":"KARAIKAL SOUTH","AC":"AC","YEAR":2026.0,"RES":"GEN","ELECTORS":30119.0,"VOTERS":25522.0,"TURNOUT":84.74,"MARGIN":5862.0,"MARGIN_PERCENTAGE":22.97,"PARTY_RANK1":"DMK","PARTY_RANK2":"INC","PARTY_RANK3":"TVK","PARTY_RANK4":"BJP","CANDIDATE_RANK1":"A.M.H. NAZEEM","CANDIDATE_RANK2":"AVS SAKTHIVEL PRABU","CANDIDATE_RANK3":"K.A.U. ASSANA","CANDIDATE_RANK4":"M. ARUL MURUGAN","VOTES_RANK1":12543.0,"VOTES_RANK2":6681.0,"VOTES_RANK3":4346.0,"VOTES_RANK4":1354.0,"VOTES_RANK1_PERCENTAGE":49.15,"VOTES_RANK2_PERCENTAGE":26.18,"VOTES_RANK3_PERCENTAGE":17.03,"VOTES_RANK4_PERCENTAGE":5.31,"COLOR":"#000000","ID":27895}},{"type":"Feature","geometry":{"type":"Polygon","coordinates":[[[79.7481,10.9964],[79.7467,11.0026],[79.7557,11.0038],[79.7666,10.9974],[79.786,10.9974],[79.789,10.992],[79.7863,10.9897],[79.7977,10.9826],[79.804,10.9871],[79.8042,10.9977],[79.8131,10.9992],[79.8152,11.0038],[79.8206,10.9982],[79.8402,11.0021],[79.8394,10.9959],[79.8512,10.9943],[79.8544,10.9833],[79.8543,10.9646],[79.8105,10.9627],[79.8114,10.9508],[79.8053,10.9501],[79.8073,10.9461],[79.7852,10.9519],[79.783,10.9654],[79.7627,10.9621],[79.7594,10.9722],[79.7547,10.9719],[79.7528,10.9769],[79.7585,10.9835],[79.7528,10.9829],[79.7525,10.9881],[79.7473,10.9884],[79.7481,10.9964]]]},"properties":{"STATE":"PUDUCHERRY","DISTRICT":"KARAIKAL","AC_NAME":"NEDUNGADU","AC":"AC","YEAR":2026.0,"RES":"SC","ELECTORS":31687.0,"VOTERS":28431.0,"TURNOUT":89.72,"MARGIN":4499.0,"MARGIN_PERCENTAGE":15.82,"PARTY_RANK1":"IND","PARTY_RANK2":"AINRC","PARTY_RANK3":"TVK","PARTY_RANK4":"INC","CANDIDATE_RANK1":"DR. V. VIGNESWARAN","CANDIDATE_RANK2":"C. CHANDIRA PRIYANGA","CANDIDATE_RANK3":"U. KAMARAJ","CANDIDATE_RANK4":"DINESH KUMAR","VOTES_RANK1":14368.0,"VOTES_RANK2":9869.0,"VOTES_RANK3":1865.0,"VOTES_RANK4":1354.0,"VOTES_RANK1_PERCENTAGE":50.54,"VOTES_RANK2_PERCENTAGE":34.71,"VOTES_RANK3_PERCENTAGE":6.56,"VOTES_RANK4_PERCENTAGE":4.76,"COLOR":"#757575","ID":27903}},{"type":"Feature","geometry":{"type":"MultiPolygon","coordinates":[[[[79.8095,10.8781],[79.8069,10.8777],[79.8074,10.8807],[79.8095,10.8781]]],[[[79.7627,10.9091],[79.7621,10.9016],[79.7678,10.9018],[79.764,10.9074],[79.7646,10.9104],[79.7756,10.9091],[79.7769,10.9055],[79.7769,10.8966],[79.7562,10.8918],[79.7635,10.8999],[79.7613,10.9018],[79.7569,10.8965],[79.7615,10.9128],[79.7638,10.9109],[79.7627,10.9091]],[[79.7671,10.9013],[79.7665,10.8987],[79.7703,10.9015],[79.7689,10.901],[79.7671,10.9013]],[[79.7581,10.8999],[79.7585,10.8999],[79.7586,10.9006],[79.7581,10.9006],[79.7581,10.8999]],[[79.7706,10.9009],[79.7713,10.9],[79.7712,10.901],[79.7706,10.9009]],[[79.7708,10.8988],[79.7714,10.8986],[79.7716,10.8991],[79.771,10.8993],[79.7708,10.8988]],[[79.7703,10.9028],[79.7697,10.9026],[79.7704,10.9023],[79.7703,10.9028]],[[79.7692,10.9035],[79.7692,10.9038],[79.7686,10.9037],[79.7692,10.9035]]],[[[79.8527,10.9105],[79.8527,10.8334],[79.8507,10.8279],[79.8413,10.828],[79.831,10.8274],[79.828,10.8497],[79.821,10.8456],[79.8079,10.8557],[79.8074,10.8655],[79.8116,10.8597],[79.8248,10.8649],[79.8223,10.8743],[79.811,10.8756],[79.8112,10.8804],[79.8287,10.8835],[79.8043,10.8911],[79.7946,10.8876],[79.7903,10.8949],[79.7899,10.8904],[79.7836,10.8885],[79.7825,10.8954],[79.7938,10.8988],[79.7913,10.9049],[79.7952,10.9027],[79.8066,10.9108],[79.8043,10.8969],[79.808,10.9015],[79.8303,10.9021],[79.8343,10.9081],[79.8425,10.9082],[79.8463,10.9149],[79.8532,10.9152],[79.8527,10.9105]]]]},"properties":{"STATE":"PUDUCHERRY","DISTRICT":"KARAIKAL","AC_NAME":"NERAVY T.R. PATTINAM","AC":"AC","YEAR":2026.0,"RES":"GEN","ELECTORS":29877.0,"VOTERS":26545.0,"TURNOUT":88.85,"MARGIN":2018.0,"MARGIN_PERCENTAGE":7.6,"PARTY_RANK1":"BJP","PARTY_RANK2":"DMK","PARTY_RANK3":"IND","PARTY_RANK4":"TVK","CANDIDATE_RANK1":"TKSM MEENATCHISUNDARAM","CANDIDATE_RANK2":"M. NAGATHIYAGARAJAN (NTR)","CANDIDATE_RANK3":"V.M.C.S. MANOHAREN","CANDIDATE_RANK4":"GANESH @ PRANADARTI GARESWARAN","VOTES_RANK1":10818.0,"VOTES_RANK2":8800.0,"VOTES_RANK3":3296.0,"VOTES_RANK4":2878.0,"VOTES_RANK1_PERCENTAGE":40.75,"VOTES_RANK2_PERCENTAGE":33.15,"VOTES_RANK3_PERCENTAGE":12.42,"VOTES_RANK4_PERCENTAGE":10.84,"COLOR":"#20C646","ID":27905}},{"type":"Feature","geometry":{"type":"MultiPolygon","coordinates":[[[[79.7397,10.9202],[79.7388,10.9201],[79.7394,10.9214],[79.7397,10.9202]]],[[[79.7223,10.9374],[79.7216,10.935],[79.7203,10.9372],[79.7223,10.9374]]],[[[79.7309,10.9705],[79.7391,10.9646],[79.7462,10.9651],[79.745,10.9566],[79.7627,10.9621],[79.783,10.9654],[79.7852,10.9519],[79.8073,10.9461],[79.8118,10.937],[79.807,10.9375],[79.8101,10.9326],[79.8046,10.9293],[79.8075,10.9268],[79.8037,10.9121],[79.8066,10.9108],[79.7952,10.9027],[79.7892,10.9085],[79.7773,10.909],[79.7769,10.9055],[79.7756,10.9091],[79.7646,10.9104],[79.7638,10.9109],[79.7615,10.9128],[79.7589,10.9167],[79.7449,10.9146],[79.7429,10.9243],[79.7248,10.929],[79.7291,10.9364],[79.723,10.935],[79.7271,10.9378],[79.724,10.9419],[79.7373,10.9525],[79.7345,10.9575],[79.7324,10.9512],[79.7198,10.9522],[79.7192,10.9685],[79.7309,10.9705]]]]},"properties":{"STATE":"PUDUCHERRY","DISTRICT":"KARAIKAL","AC_NAME":"THIRUNALLAR","AC":"AC","YEAR":2026.0,"RES":"GEN","ELECTORS":31159.0,"VOTERS":27966.0,"TURNOUT":89.75,"MARGIN":9526.0,"MARGIN_PERCENTAGE":34.06,"PARTY_RANK1":"BJP","PARTY_RANK2":"INC","PARTY_RANK3":"TVK","PARTY_RANK4":"NTK","CANDIDATE_RANK1":"G.N.S. RAJASEKARAN","CANDIDATE_RANK2":"R. KAMALAKANNAN","CANDIDATE_RANK3":"A. RAJA MOHAMED","CANDIDATE_RANK4":"S. VINOTH","VOTES_RANK1":16829.0,"VOTES_RANK2":7303.0,"VOTES_RANK3":3201.0,"VOTES_RANK4":281.0,"VOTES_RANK1_PERCENTAGE":60.18,"VOTES_RANK2_PERCENTAGE":26.11,"VOTES_RANK3_PERCENTAGE":11.45,"VOTES_RANK4_PERCENTAGE":1.0,"COLOR":"#20C646","ID":27914}},{"type":"Feature","geometry":{"type":"MultiPolygon","coordinates":[[[[75.542,11.6987],[75.5366,11.6939],[75.5306,11.704],[75.5359,11.7099],[75.5443,11.7046],[75.542,11.6987]]],[[[75.5382,11.7627],[75.5462,11.7563],[75.5433,11.7344],[75.5558,11.7277],[75.5555,11.7217],[75.5479,11.7154],[75.5378,11.716],[75.5366,11.7194],[75.5325,11.7158],[75.5375,11.7122],[75.5312,11.7084],[75.5266,11.7261],[75.5319,11.7345],[75.5403,11.7347],[75.5416,11.7388],[75.5406,11.7486],[75.5313,11.7586],[75.5382,11.7627]]]]},"properties":{"STATE":"PUDUCHERRY","DISTRICT":"MAHE","AC_NAME":"MAHE","AC":"AC","YEAR":2026.0,"RES":"GEN","ELECTORS":30256.0,"VOTERS":23801.0,"TURNOUT":78.67,"MARGIN":1115.0,"MARGIN_PERCENTAGE":4.68,"PARTY_RANK1":"IND","PARTY_RANK2":"INC","PARTY_RANK3":"BJP","PARTY_RANK4":"IUML","CANDIDATE_RANK1":"ADV. T. ASHOK KUMAR","CANDIDATE_RANK2":"RAMESH PARAMBATH","CANDIDATE_RANK3":"A. DINESAN","CANDIDATE_RANK4":"MOHAMED SAMEEL","VOTES_RANK1":8375.0,"VOTES_RANK2":7260.0,"VOTES_RANK3":6969.0,"VOTES_RANK4":800.0,"VOTES_RANK1_PERCENTAGE":35.19,"VOTES_RANK2_PERCENTAGE":30.5,"VOTES_RANK3_PERCENTAGE":29.28,"VOTES_RANK4_PERCENTAGE":3.36,"COLOR":"#757575","ID":27897}},{"type":"Feature","geometry":{"type":"Polygon","coordinates":[[[79.8318,11.9168],[79.8248,11.89],[79.7965,11.8949],[79.7964,11.8999],[79.7903,11.8972],[79.7901,11.9152],[79.7981,11.9153],[79.7978,11.9088],[79.8071,11.9079],[79.8133,11.92],[79.8318,11.9168]]]},"properties":{"STATE":"PUDUCHERRY","DISTRICT":"PUDUCHERRY","AC_NAME":"ARIANKUPPAM","AC":"AC","YEAR":2026.0,"RES":"GEN","ELECTORS":37497.0,"VOTERS":34510.0,"TURNOUT":92.03,"MARGIN":603.0,"MARGIN_PERCENTAGE":1.75,"PARTY_RANK1":"AINRC","PARTY_RANK2":"INC","PARTY_RANK3":"TVK","PARTY_RANK4":"NTK","CANDIDATE_RANK1":"C. AIYAPPAN @ MOUTTAYAPPAN","CANDIDATE_RANK2":"VIZAYALAKSHMY DJEAMOURTHY","CANDIDATE_RANK3":"KUMARAVELU","CANDIDATE_RANK4":"K. SUNDARAVADIVELU","VOTES_RANK1":14210.0,"VOTES_RANK2":13607.0,"VOTES_RANK3":5424.0,"VOTES_RANK4":462.0,"VOTES_RANK1_PERCENTAGE":41.18,"VOTES_RANK2_PERCENTAGE":39.43,"VOTES_RANK3_PERCENTAGE":15.72,"VOTES_RANK4_PERCENTAGE":1.34,"COLOR":"#ffc000","ID":27887}},{"type":"Feature","geometry":{"type":"MultiPolygon","coordinates":[[[[79.7003,11.8217],[79.7026,11.8135],[79.692,11.8142],[79.6926,11.8225],[79.7003,11.8217]]],[[[79.7575,11.8127],[79.8004,11.8099],[79.7958,11.7855],[79.7844,11.7874],[79.7804,11.7812],[79.7719,11.7822],[79.7706,11.7896],[79.7658,11.7919],[79.755,11.7753],[79.7198,11.7849],[79.7124,11.7915],[79.7139,11.7963],[79.7228,11.7965],[79.7245,11.8104],[79.7357,11.8093],[79.7295,11.837],[79.7408,11.8349],[79.7442,11.8139],[79.7575,11.8127]]]]},"properties":{"STATE":"PUDUCHERRY","DISTRICT":"PUDUCHERRY","AC_NAME":"BAHOUR","AC":"AC","YEAR":2026.0,"RES":"GEN","ELECTORS":28665.0,"VOTERS":27456.0,"TURNOUT":95.78,"MARGIN":2397.0,"MARGIN_PERCENTAGE":8.73,"PARTY_RANK1":"DMK","PARTY_RANK2":"AINRC","PARTY_RANK3":"TVK","PARTY_RANK4":"NTK","CANDIDATE_RANK1":"R. SENTHIL KUMAR","CANDIDATE_RANK2":"T. THIAGARAJAN","CANDIDATE_RANK3":"N. DHANAVELOU","CANDIDATE_RANK4":"S. NAVEENA","VOTES_RANK1":10520.0,"VOTES_RANK2":8123.0,"VOTES_RANK3":8043.0,"VOTES_RANK4":265.0,"VOTES_RANK1_PERCENTAGE":38.32,"VOTES_RANK2_PERCENTAGE":29.59,"VOTES_RANK3_PERCENTAGE":29.29,"VOTES_RANK4_PERCENTAGE":0.97,"COLOR":"#000000","ID":27888}},{"type":"Feature","geometry":{"type":"MultiPolygon","coordinates":[[[[79.7377,11.8429],[79.7644,11.8338],[79.7677,11.8227],[79.773,11.8227],[79.7802,11.8319],[79.7957,11.8285],[79.7975,11.8246],[79.8006,11.8307],[79.7936,11.8324],[79.7982,11.8387],[79.807,11.8335],[79.8004,11.8099],[79.7575,11.8127],[79.7442,11.8139],[79.7408,11.8349],[79.7295,11.837],[79.7381,11.8369],[79.7377,11.8429]]],[[[79.743,11.8886],[79.7518,11.888],[79.7507,11.8741],[79.757,11.8682],[79.7518,11.8484],[79.7431,11.8485],[79.7419,11.8629],[79.7338,11.8656],[79.7211,11.8625],[79.7196,11.853],[79.7082,11.8691],[79.7094,11.8837],[79.7177,11.8814],[79.743,11.8886]]]]},"properties":{"STATE":"PUDUCHERRY","DISTRICT":"PUDUCHERRY","AC_NAME":"EMBALAM","AC":"AC","YEAR":2026.0,"RES":"SC","ELECTORS":33087.0,"VOTERS":31542.0,"TURNOUT":95.33,"MARGIN":4061.0,"MARGIN_PERCENTAGE":12.87,"PARTY_RANK1":"AINRC","PARTY_RANK2":"INC","PARTY_RANK3":"TVK","PARTY_RANK4":"NTK","CANDIDATE_RANK1":"E. MOHANDOSS","CANDIDATE_RANK2":"M. CANDASSAMY","CANDIDATE_RANK3":"V. TAMILSELVAN","CANDIDATE_RANK4":"S. MANOJ CHANDAR","VOTES_RANK1":16017.0,"VOTES_RANK2":11956.0,"VOTES_RANK3":2708.0,"VOTES_RANK4":303.0,"VOTES_RANK1_PERCENTAGE":50.78,"VOTES_RANK2_PERCENTAGE":37.91,"VOTES_RANK3_PERCENTAGE":8.59,"VOTES_RANK4_PERCENTAGE":0.96,"COLOR":"#ffc000","ID":27889}},{"type":"Feature","geometry":{"type":"Polygon","coordinates":[[[79.8032,11.9532],[79.8054,11.9492],[79.798,11.9391],[79.7974,11.9394],[79.795,11.9469],[79.7891,11.9501],[79.7847,11.9548],[79.7852,11.9365],[79.7705,11.9358],[79.7697,11.944],[79.7847,11.9599],[79.8032,11.9532]]]},"properties":{"STATE":"PUDUCHERRY","DISTRICT":"PUDUCHERRY","AC_NAME":"INDIRA NAGAR","AC":"AC","YEAR":2026.0,"RES":"GEN","ELECTORS":32577.0,"VOTERS":30001.0,"TURNOUT":92.09,"MARGIN":584.0,"MARGIN_PERCENTAGE":1.95,"PARTY_RANK1":"AINRC","PARTY_RANK2":"TVK","PARTY_RANK3":"INC","PARTY_RANK4":"IND","CANDIDATE_RANK1":"P.V. AROUMOUGAME @ AKD","CANDIDATE_RANK2":"S. MOUROUGANE","CANDIDATE_RANK3":"N. RAJAKUMAR","CANDIDATE_RANK4":"G. ROBERT JESUDASS","VOTES_RANK1":12640.0,"VOTES_RANK2":12056.0,"VOTES_RANK3":2104.0,"VOTES_RANK4":1946.0,"VOTES_RANK1_PERCENTAGE":42.13,"VOTES_RANK2_PERCENTAGE":40.19,"VOTES_RANK3_PERCENTAGE":7.01,"VOTES_RANK4_PERCENTAGE":6.49,"COLOR":"#ffc000","ID":27890}},{"type":"Feature","geometry":{"type":"MultiPolygon","coordinates":[[[[79.806,11.9367],[79.8076,11.9359],[79.8052,11.931],[79.8101,11.9304],[79.8101,11.9302],[79.8109,11.9242],[79.8023,11.9226],[79.8066,11.928],[79.7979,11.9358],[79.806,11.9367]]],[[[79.7891,11.9501],[79.795,11.9469],[79.7974,11.9394],[79.7943,11.9335],[79.7852,11.9365],[79.7847,11.9548],[79.7891,11.9501]]]]},"properties":{"STATE":"PUDUCHERRY","DISTRICT":"PUDUCHERRY","AC_NAME":"KADIRGAMAM","AC":"AC","YEAR":2026.0,"RES":"GEN","ELECTORS":31638.0,"VOTERS":28497.0,"TURNOUT":90.07,"MARGIN":7004.0,"MARGIN_PERCENTAGE":24.58,"PARTY_RANK1":"IND","PARTY_RANK2":"AINRC","PARTY_RANK3":"TVK","PARTY_RANK4":"DMK","CANDIDATE_RANK1":"AZHAGU @ AZHAGANANTHAM","CANDIDATE_RANK2":"K.S.P @ S. RAMESH","CANDIDATE_RANK3":"JAYANTHI RAJAVELU","CANDIDATE_RANK4":"A. P. R. VADIVEL","VOTES_RANK1":14633.0,"VOTES_RANK2":7629.0,"VOTES_RANK3":3024.0,"VOTES_RANK4":2417.0,"VOTES_RANK1_PERCENTAGE":51.35,"VOTES_RANK2_PERCENTAGE":26.77,"VOTES_RANK3_PERCENTAGE":10.61,"VOTES_RANK4_PERCENTAGE":8.48,"COLOR":"#757575","ID":27891}},{"type":"Feature","geometry":{"type":"MultiPolygon","coordinates":[[[[79.8216,11.9696],[79.8284,11.9587],[79.8239,11.9576],[79.8163,11.9689],[79.8164,11.9586],[79.8053,11.9636],[79.8125,11.9779],[79.8184,11.9779],[79.8216,11.9696]]],[[[79.7943,12.0258],[79.8053,12.0245],[79.7983,12.017],[79.7883,12.0192],[79.7893,12.0277],[79.7943,12.0258]]],[[[79.8576,12.0078],[79.8571,12.0068],[79.8405,12.0133],[79.8488,12.0492],[79.8498,12.0518],[79.8738,12.0426],[79.8576,12.0078]]]]},"properties":{"STATE":"PUDUCHERRY","DISTRICT":"PUDUCHERRY","AC_NAME":"KALAPET","AC":"AC","YEAR":2026.0,"RES":"GEN","ELECTORS":33963.0,"VOTERS":31545.0,"TURNOUT":92.88,"MARGIN":447.0,"MARGIN_PERCENTAGE":1.42,"PARTY_RANK1":"DMK","PARTY_RANK2":"BJP","PARTY_RANK3":"TVK","PARTY_RANK4":"INC","CANDIDATE_RANK1":"SENTHIL @ RAMESH","CANDIDATE_RANK2":"P.M.L. KALYANASUNDARAM","CANDIDATE_RANK3":"D. SASIKUMAR","CANDIDATE_RANK4":"M.O.H.F. SHAHJAHAN","VOTES_RANK1":12069.0,"VOTES_RANK2":11622.0,"VOTES_RANK3":4775.0,"VOTES_RANK4":1990.0,"VOTES_RANK1_PERCENTAGE":38.26,"VOTES_RANK2_PERCENTAGE":36.84,"VOTES_RANK3_PERCENTAGE":15.14,"VOTES_RANK4_PERCENTAGE":6.31,"COLOR":"#000000","ID":27892}},{"type":"Feature","geometry":{"type":"Polygon","coordinates":[[[79.8284,11.9587],[79.8299,11.9577],[79.8247,11.9395],[79.8207,11.9347],[79.8177,11.9344],[79.8079,11.9386],[79.8172,11.9429],[79.8162,11.9491],[79.8239,11.9576],[79.8284,11.9587]]]},"properties":{"STATE":"PUDUCHERRY","DISTRICT":"PUDUCHERRY","AC_NAME":"KAMARAJ NAGAR","AC":"AC","YEAR":2026.0,"RES":"GEN","ELECTORS":35314.0,"VOTERS":31226.0,"TURNOUT":88.42,"MARGIN":10205.0,"MARGIN_PERCENTAGE":32.68,"PARTY_RANK1":"LJK","PARTY_RANK2":"INC","PARTY_RANK3":"TVK","PARTY_RANK4":"NTK","CANDIDATE_RANK1":"JOSE CHARLES MARTIN","CANDIDATE_RANK2":"P.K. DEVADOSS","CANDIDATE_RANK3":"SUMAN","CANDIDATE_RANK4":"B. COWRI","VOTES_RANK1":16592.0,"VOTES_RANK2":6387.0,"VOTES_RANK3":6289.0,"VOTES_RANK4":693.0,"VOTES_RANK1_PERCENTAGE":53.14,"VOTES_RANK2_PERCENTAGE":20.45,"VOTES_RANK3_PERCENTAGE":20.14,"VOTES_RANK4_PERCENTAGE":2.22,"COLOR":null,"ID":27893}},{"type":"Feature","geometry":{"type":"Polygon","coordinates":[[[79.8053,11.9636],[79.8164,11.9586],[79.8163,11.9689],[79.8239,11.9576],[79.8162,11.9491],[79.8152,11.9562],[79.8102,11.9562],[79.8055,11.9529],[79.8073,11.9463],[79.8054,11.9492],[79.8032,11.9532],[79.8053,11.9636]]]},"properties":{"STATE":"PUDUCHERRY","DISTRICT":"PUDUCHERRY","AC_NAME":"LAWSPET","AC":"AC","YEAR":2026.0,"RES":"GEN","ELECTORS":29987.0,"VOTERS":26766.0,"TURNOUT":89.26,"MARGIN":1417.0,"MARGIN_PERCENTAGE":5.29,"PARTY_RANK1":"AINRC","PARTY_RANK2":"INC","PARTY_RANK3":"TVK","PARTY_RANK4":"NTK","CANDIDATE_RANK1":"V.P. SIVAKOLUNDHU","CANDIDATE_RANK2":"M. VAITHIANATHAN","CANDIDATE_RANK3":"V. SAMINATHAN","CANDIDATE_RANK4":"S. JAYACHITRA","VOTES_RANK1":10578.0,"VOTES_RANK2":9161.0,"VOTES_RANK3":5647.0,"VOTES_RANK4":433.0,"VOTES_RANK1_PERCENTAGE":39.52,"VOTES_RANK2_PERCENTAGE":34.23,"VOTES_RANK3_PERCENTAGE":21.1,"VOTES_RANK4_PERCENTAGE":1.62,"COLOR":"#ffc000","ID":27896}},{"type":"Feature","geometry":{"type":"Polygon","coordinates":[[[79.8248,11.89],[79.8077,11.8364],[79.8077,11.8468],[79.8006,11.8553],[79.7817,11.8558],[79.7758,11.8385],[79.7661,11.8406],[79.7621,11.8484],[79.7708,11.8614],[79.77,11.8746],[79.7727,11.8758],[79.7796,11.878],[79.7784,11.8632],[79.7851,11.863],[79.7965,11.8949],[79.8248,11.89]]]},"properties":{"STATE":"PUDUCHERRY","DISTRICT":"PUDUCHERRY","AC_NAME":"MANAVELY","AC":"AC","YEAR":2026.0,"RES":"GEN","ELECTORS":34473.0,"VOTERS":32386.0,"TURNOUT":93.95,"MARGIN":3093.0,"MARGIN_PERCENTAGE":9.55,"PARTY_RANK1":"TVK","PARTY_RANK2":"BJP","PARTY_RANK3":"INC","PARTY_RANK4":"IND","CANDIDATE_RANK1":"B.RAMU","CANDIDATE_RANK2":"EMBALAM SELVAM @ SELVAM. R","CANDIDATE_RANK3":"R K R. ANANTHARAMAN","CANDIDATE_RANK4":"R. PERUMAL","VOTES_RANK1":13822.0,"VOTES_RANK2":10729.0,"VOTES_RANK3":5932.0,"VOTES_RANK4":754.0,"VOTES_RANK1_PERCENTAGE":42.68,"VOTES_RANK2_PERCENTAGE":33.13,"VOTES_RANK3_PERCENTAGE":18.32,"VOTES_RANK4_PERCENTAGE":2.33,"COLOR":null,"ID":27898}},{"type":"Feature","geometry":{"type":"MultiPolygon","coordinates":[[[[79.6998,11.8738],[79.6991,11.8613],[79.696,11.8604],[79.6994,11.8743],[79.6998,11.8738]]],[[[79.7045,11.9191],[79.7186,11.919],[79.7179,11.9134],[79.7066,11.9135],[79.709,11.9033],[79.7053,11.8939],[79.7111,11.8908],[79.7168,11.8928],[79.7241,11.8886],[79.7228,11.8918],[79.7305,11.8917],[79.7313,11.9032],[79.7407,11.9055],[79.7346,11.9118],[79.7375,11.9171],[79.7614,11.9137],[79.7632,11.903],[79.7715,11.9027],[79.7727,11.8758],[79.77,11.8746],[79.7574,11.8761],[79.757,11.8682],[79.7507,11.8741],[79.7518,11.888],[79.743,11.8886],[79.7177,11.8814],[79.7094,11.8837],[79.7074,11.8891],[79.6848,11.886],[79.685,11.881],[79.674,11.8807],[79.6738,11.8916],[79.6868,11.8889],[79.6871,11.8945],[79.6954,11.8948],[79.6962,11.9192],[79.7045,11.9191]]]]},"properties":{"STATE":"PUDUCHERRY","DISTRICT":"PUDUCHERRY","AC_NAME":"MANGALAM","AC":"AC","YEAR":2026.0,"RES":"GEN","ELECTORS":37131.0,"VOTERS":35405.0,"TURNOUT":95.35,"MARGIN":7050.0,"MARGIN_PERCENTAGE":19.91,"PARTY_RANK1":"AINRC","PARTY_RANK2":"DMK","PARTY_RANK3":"TVK","PARTY_RANK4":"INC","CANDIDATE_RANK1":"N. RANGASAMY","CANDIDATE_RANK2":"S.S. RANGAN","CANDIDATE_RANK3":"M.K. SATHIA MANIKKAVASAGANE","CANDIDATE_RANK4":"K. RAGUBADY","VOTES_RANK1":17917.0,"VOTES_RANK2":10867.0,"VOTES_RANK3":4202.0,"VOTES_RANK4":1414.0,"VOTES_RANK1_PERCENTAGE":50.61,"VOTES_RANK2_PERCENTAGE":30.69,"VOTES_RANK3_PERCENTAGE":11.87,"VOTES_RANK4_PERCENTAGE":3.99,"COLOR":"#ffc000","ID":27899}},{"type":"Feature","geometry":{"type":"MultiPolygon","coordinates":[[[[79.6279,12.0318],[79.6514,12.0223],[79.6423,11.9993],[79.636,11.996],[79.64,11.9927],[79.6364,11.9778],[79.6483,11.9673],[79.6473,11.9534],[79.6422,11.9539],[79.6427,11.9421],[79.6479,11.9446],[79.6458,11.9413],[79.6285,11.9452],[79.6287,11.9571],[79.6275,11.9681],[79.6185,11.9705],[79.6245,11.976],[79.6244,11.9818],[79.6171,11.9896],[79.6236,11.9893],[79.6262,12.0004],[79.6189,12.0013],[79.6211,12.0103],[79.621,12.0143],[79.6292,12.0187],[79.6279,12.0318]]],[[[79.695,12.0356],[79.7048,12.032],[79.7028,12.0111],[79.7196,11.9922],[79.6854,11.9916],[79.6808,11.9833],[79.6739,11.9951],[79.6625,11.9895],[79.6569,11.9916],[79.6614,12.0123],[79.6722,12.0097],[79.6765,12.0216],[79.6842,12.0217],[79.6928,12.0353],[79.695,12.0356]]]]},"properties":{"STATE":"PUDUCHERRY","DISTRICT":"PUDUCHERRY","AC_NAME":"MANNADIPET","AC":"AC","YEAR":2026.0,"RES":"GEN","ELECTORS":31133.0,"VOTERS":29502.0,"TURNOUT":94.76,"MARGIN":6110.0,"MARGIN_PERCENTAGE":20.71,"PARTY_RANK1":"BJP","PARTY_RANK2":"INC","PARTY_RANK3":"TVK","PARTY_RANK4":"NTK","CANDIDATE_RANK1":"A. NAMASSIVAYAM","CANDIDATE_RANK2":"T.P.R. SELVAME","CANDIDATE_RANK3":"K. BHARATHITHASAN","CANDIDATE_RANK4":"B. VENKATESAN","VOTES_RANK1":15918.0,"VOTES_RANK2":9808.0,"VOTES_RANK3":3032.0,"VOTES_RANK4":260.0,"VOTES_RANK1_PERCENTAGE":53.96,"VOTES_RANK2_PERCENTAGE":33.25,"VOTES_RANK3_PERCENTAGE":10.28,"VOTES_RANK4_PERCENTAGE":0.88,"COLOR":"#20C646","ID":27900}},{"type":"Feature","geometry":{"type":"Polygon","coordinates":[[[79.8163,11.9252],[79.8133,11.92],[79.8071,11.9079],[79.7978,11.9088],[79.7981,11.9153],[79.7901,11.9152],[79.7901,11.9186],[79.8023,11.9226],[79.8109,11.9242],[79.8163,11.9252]]]},"properties":{"STATE":"PUDUCHERRY","DISTRICT":"PUDUCHERRY","AC_NAME":"MUDALIARPET","AC":"AC","YEAR":2026.0,"RES":"GEN","ELECTORS":34555.0,"VOTERS":31199.0,"TURNOUT":90.29,"MARGIN":2371.0,"MARGIN_PERCENTAGE":7.6,"PARTY_RANK1":"BJP","PARTY_RANK2":"DMK","PARTY_RANK3":"TVK","PARTY_RANK4":"NTK","CANDIDATE_RANK1":"A. JOHNKUMAR","CANDIDATE_RANK2":"L. SAMBATH","CANDIDATE_RANK3":"N. MANIBALAN","CANDIDATE_RANK4":"M. VELAVAN","VOTES_RANK1":12945.0,"VOTES_RANK2":10574.0,"VOTES_RANK3":5906.0,"VOTES_RANK4":730.0,"VOTES_RANK1_PERCENTAGE":41.49,"VOTES_RANK2_PERCENTAGE":33.89,"VOTES_RANK3_PERCENTAGE":18.93,"VOTES_RANK4_PERCENTAGE":2.34,"COLOR":"#20C646","ID":27901}},{"type":"Feature","geometry":{"type":"Polygon","coordinates":[[[79.8299,11.9577],[79.8389,11.9561],[79.8384,11.9475],[79.8343,11.949],[79.8328,11.9418],[79.8247,11.9395],[79.8299,11.9577]]]},"properties":{"STATE":"PUDUCHERRY","DISTRICT":"PUDUCHERRY","AC_NAME":"MUTHIALPET","AC":"AC","YEAR":2026.0,"RES":"GEN","ELECTORS":26129.0,"VOTERS":23560.0,"TURNOUT":90.17,"MARGIN":952.0,"MARGIN_PERCENTAGE":4.04,"PARTY_RANK1":"AINRC","PARTY_RANK2":"INC","PARTY_RANK3":"TVK","PARTY_RANK4":"IND","CANDIDATE_RANK1":"VAIYAPURI MANIKANDAN","CANDIDATE_RANK2":"EERAM G. RAJENDRAN","CANDIDATE_RANK3":"J. PRAKASH KUMAR","CANDIDATE_RANK4":"M. PRABAGARAN","VOTES_RANK1":8382.0,"VOTES_RANK2":7430.0,"VOTES_RANK3":3611.0,"VOTES_RANK4":3285.0,"VOTES_RANK1_PERCENTAGE":35.58,"VOTES_RANK2_PERCENTAGE":31.54,"VOTES_RANK3_PERCENTAGE":15.33,"VOTES_RANK4_PERCENTAGE":13.94,"COLOR":"#ffc000","ID":27902}},{"type":"Feature","geometry":{"type":"MultiPolygon","coordinates":[[[[79.8101,11.9302],[79.8165,11.9253],[79.8163,11.9252],[79.8109,11.9242],[79.8101,11.9302]]],[[[79.811,11.9306],[79.8101,11.9304],[79.8052,11.931],[79.8076,11.9359],[79.8079,11.9386],[79.8177,11.9344],[79.811,11.9306]]]]},"properties":{"STATE":"PUDUCHERRY","DISTRICT":"PUDUCHERRY","AC_NAME":"NELLITHOPE","AC":"AC","YEAR":2026.0,"RES":"GEN","ELECTORS":26858.0,"VOTERS":24770.0,"TURNOUT":92.23,"MARGIN":850.0,"MARGIN_PERCENTAGE":3.43,"PARTY_RANK1":"DMK","PARTY_RANK2":"IND","PARTY_RANK3":"TVK","PARTY_RANK4":"LJK","CANDIDATE_RANK1":"V. CARTIGUEYANE","CANDIDATE_RANK2":"OMSAKTHISEKAR","CANDIDATE_RANK3":"S. VIGNESHWARAN","CANDIDATE_RANK4":"A. JAYAKUMAR","VOTES_RANK1":8226.0,"VOTES_RANK2":7376.0,"VOTES_RANK3":4763.0,"VOTES_RANK4":3311.0,"VOTES_RANK1_PERCENTAGE":33.21,"VOTES_RANK2_PERCENTAGE":29.78,"VOTES_RANK3_PERCENTAGE":19.23,"VOTES_RANK4_PERCENTAGE":13.37,"COLOR":"#000000","ID":27904}},{"type":"Feature","geometry":{"type":"MultiPolygon","coordinates":[[[[79.6797,11.8145],[79.6842,11.8127],[79.6903,11.8054],[79.6817,11.797],[79.6748,11.8067],[79.676,11.8143],[79.6797,11.8145]]],[[[79.6537,11.8428],[79.6617,11.8393],[79.6594,11.8295],[79.6713,11.8236],[79.6712,11.8149],[79.6463,11.8163],[79.641,11.8241],[79.6473,11.8442],[79.6537,11.8428]]],[[[79.6307,11.8812],[79.6345,11.881],[79.6348,11.8888],[79.6411,11.8866],[79.6405,11.8806],[79.6484,11.8803],[79.6485,11.8705],[79.6627,11.8672],[79.6578,11.8526],[79.6471,11.85],[79.6269,11.8543],[79.6285,11.8698],[79.6191,11.8701],[79.6194,11.8627],[79.6122,11.8626],[79.602,11.8578],[79.6024,11.8622],[79.5993,11.8829],[79.6082,11.8769],[79.6212,11.8906],[79.627,11.889],[79.6307,11.8812]]]]},"properties":{"STATE":"PUDUCHERRY","DISTRICT":"PUDUCHERRY","AC_NAME":"NETTAPAKKAM","AC":"AC","YEAR":2026.0,"RES":"SC","ELECTORS":30257.0,"VOTERS":28718.0,"TURNOUT":94.91,"MARGIN":6689.0,"MARGIN_PERCENTAGE":23.29,"PARTY_RANK1":"AINRC","PARTY_RANK2":"INC","PARTY_RANK3":"TVK","PARTY_RANK4":"IND","CANDIDATE_RANK1":"P. RAJAVELU","CANDIDATE_RANK2":"G. ANBARASAN","CANDIDATE_RANK3":"L PERIASAMY","CANDIDATE_RANK4":"N ARIKRISHNAN","VOTES_RANK1":13665.0,"VOTES_RANK2":6976.0,"VOTES_RANK3":5382.0,"VOTES_RANK4":1511.0,"VOTES_RANK1_PERCENTAGE":47.58,"VOTES_RANK2_PERCENTAGE":24.29,"VOTES_RANK3_PERCENTAGE":18.74,"VOTES_RANK4_PERCENTAGE":5.26,"COLOR":"#ffc000","ID":27906}},{"type":"Feature","geometry":{"type":"Polygon","coordinates":[[[79.8207,11.9347],[79.8288,11.9339],[79.8271,11.9283],[79.8242,11.9287],[79.8165,11.9253],[79.8101,11.9302],[79.8101,11.9304],[79.811,11.9306],[79.8177,11.9344],[79.8207,11.9347]]]},"properties":{"STATE":"PUDUCHERRY","DISTRICT":"PUDUCHERRY","AC_NAME":"ORLEAMPETH","AC":"AC","YEAR":2026.0,"RES":"GEN","ELECTORS":21731.0,"VOTERS":19594.0,"TURNOUT":90.17,"MARGIN":1201.0,"MARGIN_PERCENTAGE":6.13,"PARTY_RANK1":"NYMK","PARTY_RANK2":"DMK","PARTY_RANK3":"AIADMK","PARTY_RANK4":"NTK","CANDIDATE_RANK1":"G. NEHRU ALIAS COUPPOUSSAMY","CANDIDATE_RANK2":"S. GOPAL","CANDIDATE_RANK3":"A. GANDHI","CANDIDATE_RANK4":"ANITHA VEERAPAN","VOTES_RANK1":9960.0,"VOTES_RANK2":8759.0,"VOTES_RANK3":300.0,"VOTES_RANK4":184.0,"VOTES_RANK1_PERCENTAGE":50.83,"VOTES_RANK2_PERCENTAGE":44.7,"VOTES_RANK3_PERCENTAGE":1.53,"VOTES_RANK4_PERCENTAGE":0.94,"COLOR":null,"ID":27907}},{"type":"Feature","geometry":{"type":"Polygon","coordinates":[[[79.8242,11.9287],[79.8271,11.9283],[79.835,11.9271],[79.8318,11.9168],[79.8133,11.92],[79.8163,11.9252],[79.8165,11.9253],[79.8242,11.9287]]]},"properties":{"STATE":"PUDUCHERRY","DISTRICT":"PUDUCHERRY","AC_NAME":"OUPALAM","AC":"AC","YEAR":2026.0,"RES":"GEN","ELECTORS":25515.0,"VOTERS":23030.0,"TURNOUT":90.26,"MARGIN":1026.0,"MARGIN_PERCENTAGE":4.46,"PARTY_RANK1":"AIADMK","PARTY_RANK2":"TVK","PARTY_RANK3":"DMK","PARTY_RANK4":"NTK","CANDIDATE_RANK1":"A ANBALAGAN","CANDIDATE_RANK2":"S SIVA","CANDIDATE_RANK3":"ANNIBAL KENNEDY","CANDIDATE_RANK4":"V DEVIPRIYA","VOTES_RANK1":9099.0,"VOTES_RANK2":8073.0,"VOTES_RANK3":5327.0,"VOTES_RANK4":326.0,"VOTES_RANK1_PERCENTAGE":39.51,"VOTES_RANK2_PERCENTAGE":35.05,"VOTES_RANK3_PERCENTAGE":23.13,"VOTES_RANK4_PERCENTAGE":1.42,"COLOR":"#007500","ID":27908}},{"type":"Feature","geometry":{"type":"MultiPolygon","coordinates":[[[[79.7697,11.944],[79.7705,11.9358],[79.7649,11.9333],[79.7695,11.929],[79.7612,11.9285],[79.7599,11.9436],[79.7697,11.944]]],[[[79.7562,12.0041],[79.7624,12.0027],[79.7604,11.9892],[79.7481,11.9847],[79.7428,11.9778],[79.7264,11.9857],[79.7235,11.9775],[79.7245,11.9713],[79.7445,11.9649],[79.7491,11.9295],[79.7441,11.9299],[79.745,11.9209],[79.7375,11.9171],[79.7346,11.9118],[79.7175,11.929],[79.7208,11.9449],[79.7096,11.9498],[79.708,11.9441],[79.7012,11.9512],[79.7001,11.9628],[79.7034,11.9671],[79.715,11.9676],[79.716,11.971],[79.7093,11.9757],[79.7124,11.9865],[79.7158,11.9848],[79.7206,11.9927],[79.7334,11.9933],[79.7476,12.0078],[79.7562,12.0041]]]]},"properties":{"STATE":"PUDUCHERRY","DISTRICT":"PUDUCHERRY","AC_NAME":"OUSSUDU","AC":"AC","YEAR":2026.0,"RES":"SC","ELECTORS":32813.0,"VOTERS":31301.0,"TURNOUT":95.39,"MARGIN":4018.0,"MARGIN_PERCENTAGE":12.84,"PARTY_RANK1":"INC","PARTY_RANK2":"BJP","PARTY_RANK3":"TVK","PARTY_RANK4":"NTK","CANDIDATE_RANK1":"P. KARTHIKEYAN","CANDIDATE_RANK2":"E. THEEPPAINTHAN","CANDIDATE_RANK3":"S. SARAGANABAVA","CANDIDATE_RANK4":"GOWRI","VOTES_RANK1":15400.0,"VOTES_RANK2":11382.0,"VOTES_RANK3":3698.0,"VOTES_RANK4":458.0,"VOTES_RANK1_PERCENTAGE":49.2,"VOTES_RANK2_PERCENTAGE":36.36,"VOTES_RANK3_PERCENTAGE":11.81,"VOTES_RANK4_PERCENTAGE":1.46,"COLOR":"#00BFFF","ID":27909}},{"type":"Feature","geometry":{"type":"Polygon","coordinates":[[[79.7974,11.9394],[79.798,11.9391],[79.7979,11.9358],[79.8066,11.928],[79.8023,11.9226],[79.7901,11.9186],[79.7885,11.9272],[79.7807,11.932],[79.7765,11.9258],[79.7699,11.9254],[79.7749,11.9293],[79.7695,11.929],[79.7649,11.9333],[79.7705,11.9358],[79.7852,11.9365],[79.7943,11.9335],[79.7974,11.9394]]]},"properties":{"STATE":"PUDUCHERRY","DISTRICT":"PUDUCHERRY","AC_NAME":"OZHUKARAI","AC":"AC","YEAR":2026.0,"RES":"GEN","ELECTORS":40278.0,"VOTERS":35893.0,"TURNOUT":89.11,"MARGIN":4234.0,"MARGIN_PERCENTAGE":11.8,"PARTY_RANK1":"AINRC","PARTY_RANK2":"TVK","PARTY_RANK3":"IND","PARTY_RANK4":"INC","CANDIDATE_RANK1":"K.NARAYANASAMY ALIAS NITHYANANDAM","CANDIDATE_RANK2":"SASIBALAN","CANDIDATE_RANK3":"N. SARAVANAN","CANDIDATE_RANK4":"M. SIVASANKAR","VOTES_RANK1":12635.0,"VOTES_RANK2":8401.0,"VOTES_RANK3":7446.0,"VOTES_RANK4":3709.0,"VOTES_RANK1_PERCENTAGE":35.2,"VOTES_RANK2_PERCENTAGE":23.41,"VOTES_RANK3_PERCENTAGE":20.74,"VOTES_RANK4_PERCENTAGE":10.33,"COLOR":"#ffc000","ID":27910}},{"type":"Feature","geometry":{"type":"Polygon","coordinates":[[[79.8384,11.9475],[79.835,11.9271],[79.8271,11.9283],[79.8288,11.9339],[79.8207,11.9347],[79.8247,11.9395],[79.8328,11.9418],[79.8343,11.949],[79.8384,11.9475]]]},"properties":{"STATE":"PUDUCHERRY","DISTRICT":"PUDUCHERRY","AC_NAME":"RAJ BHAVAN","AC":"AC","YEAR":2026.0,"RES":"GEN","ELECTORS":21053.0,"VOTERS":18716.0,"TURNOUT":88.9,"MARGIN":287.0,"MARGIN_PERCENTAGE":1.53,"PARTY_RANK1":"DMK","PARTY_RANK2":"BJP","PARTY_RANK3":"TVK","PARTY_RANK4":"INC","CANDIDATE_RANK1":"VIGNESH KANNAN","CANDIDATE_RANK2":"V. P. RAMALINGAME","CANDIDATE_RANK3":"V.J. CHANDRAN","CANDIDATE_RANK4":"R KUMARAN","VOTES_RANK1":7304.0,"VOTES_RANK2":7017.0,"VOTES_RANK3":2361.0,"VOTES_RANK4":1538.0,"VOTES_RANK1_PERCENTAGE":39.03,"VOTES_RANK2_PERCENTAGE":37.49,"VOTES_RANK3_PERCENTAGE":12.61,"VOTES_RANK4_PERCENTAGE":8.22,"COLOR":"#000000","ID":27911}},{"type":"Feature","geometry":{"type":"Polygon","coordinates":[[[79.8102,11.9562],[79.8152,11.9562],[79.8162,11.9491],[79.8172,11.9429],[79.8079,11.9386],[79.8076,11.9359],[79.806,11.9367],[79.7979,11.9358],[79.798,11.9391],[79.8054,11.9492],[79.8073,11.9463],[79.8055,11.9529],[79.8102,11.9562]]]},"properties":{"STATE":"PUDUCHERRY","DISTRICT":"PUDUCHERRY","AC_NAME":"THATTANCHAVADY","AC":"AC","YEAR":2026.0,"RES":"GEN","ELECTORS":26616.0,"VOTERS":23578.0,"TURNOUT":88.59,"MARGIN":4441.0,"MARGIN_PERCENTAGE":18.84,"PARTY_RANK1":"AINRC","PARTY_RANK2":"NYMK","PARTY_RANK3":"IND","PARTY_RANK4":"INC","CANDIDATE_RANK1":"N. RANGASAMY","CANDIDATE_RANK2":"E. VINAYAGAM","CANDIDATE_RANK3":"K. SETHU @ SETHUSELVAM","CANDIDATE_RANK4":"VE. VAITHILINGAM","VOTES_RANK1":10024.0,"VOTES_RANK2":5583.0,"VOTES_RANK3":3984.0,"VOTES_RANK4":2990.0,"VOTES_RANK1_PERCENTAGE":42.51,"VOTES_RANK2_PERCENTAGE":23.68,"VOTES_RANK3_PERCENTAGE":16.9,"VOTES_RANK4_PERCENTAGE":12.68,"COLOR":"#ffc000","ID":27912}},{"type":"Feature","geometry":{"type":"MultiPolygon","coordinates":[[[[79.6586,11.9446],[79.6607,11.9371],[79.6703,11.9355],[79.6689,11.9184],[79.656,11.9129],[79.6559,11.9079],[79.6411,11.9077],[79.6406,11.9022],[79.6298,11.9016],[79.6259,11.9059],[79.6283,11.9196],[79.6184,11.9261],[79.6179,11.9361],[79.6189,11.9432],[79.6285,11.9452],[79.6458,11.9413],[79.6479,11.9446],[79.652,11.9436],[79.653,11.9482],[79.6586,11.9446]]],[[[79.6965,11.9626],[79.7001,11.9628],[79.7012,11.9512],[79.708,11.9441],[79.7111,11.9331],[79.6972,11.9418],[79.6916,11.9514],[79.6965,11.9626]]],[[[79.6865,11.9732],[79.6846,11.9534],[79.6733,11.9479],[79.6547,11.9535],[79.6538,11.9606],[79.66,11.9584],[79.6622,11.9691],[79.6767,11.9681],[79.6847,11.9731],[79.6865,11.9732]]]]},"properties":{"STATE":"PUDUCHERRY","DISTRICT":"PUDUCHERRY","AC_NAME":"THIRUBHUVANAI","AC":"AC","YEAR":2026.0,"RES":"SC","ELECTORS":31916.0,"VOTERS":30299.0,"TURNOUT":94.93,"MARGIN":701.0,"MARGIN_PERCENTAGE":2.31,"PARTY_RANK1":"TVK","PARTY_RANK2":"AINRC","PARTY_RANK3":"DMK","PARTY_RANK4":"INC","CANDIDATE_RANK1":"AK. SAI J SARAVANAN KUMAR","CANDIDATE_RANK2":"B. KOBIGA","CANDIDATE_RANK3":"P. ANGALANE","CANDIDATE_RANK4":"K. VELU","VOTES_RANK1":9740.0,"VOTES_RANK2":9039.0,"VOTES_RANK3":6630.0,"VOTES_RANK4":3561.0,"VOTES_RANK1_PERCENTAGE":32.15,"VOTES_RANK2_PERCENTAGE":29.83,"VOTES_RANK3_PERCENTAGE":21.88,"VOTES_RANK4_PERCENTAGE":11.75,"COLOR":null,"ID":27913}},{"type":"Feature","geometry":{"type":"Polygon","coordinates":[[[79.7695,11.929],[79.7749,11.9293],[79.7699,11.9254],[79.7765,11.9258],[79.7807,11.932],[79.7885,11.9272],[79.7901,11.9186],[79.7901,11.9152],[79.7903,11.8972],[79.7814,11.9028],[79.7715,11.9027],[79.7632,11.903],[79.7614,11.9137],[79.7375,11.9171],[79.745,11.9209],[79.7441,11.9299],[79.7491,11.9295],[79.7502,11.92],[79.7562,11.9204],[79.755,11.9261],[79.7612,11.9285],[79.7695,11.929]]]},"properties":{"STATE":"PUDUCHERRY","DISTRICT":"PUDUCHERRY","AC_NAME":"VILLIANUR","AC":"AC","YEAR":2026.0,"RES":"GEN","ELECTORS":42884.0,"VOTERS":39346.0,"TURNOUT":91.75,"MARGIN":1970.0,"MARGIN_PERCENTAGE":5.01,"PARTY_RANK1":"AINRC","PARTY_RANK2":"DMK","PARTY_RANK3":"TVK","PARTY_RANK4":"NTK","CANDIDATE_RANK1":"B.RAVICOUMAR","CANDIDATE_RANK2":"R.SIVA","CANDIDATE_RANK3":"R.RAMESH","CANDIDATE_RANK4":"D.RAMESH","VOTES_RANK1":16970.0,"VOTES_RANK2":15000.0,"VOTES_RANK3":6248.0,"VOTES_RANK4":518.0,"VOTES_RANK1_PERCENTAGE":43.13,"VOTES_RANK2_PERCENTAGE":38.12,"VOTES_RANK3_PERCENTAGE":15.88,"VOTES_RANK4_PERCENTAGE":1.32,"COLOR":"#ffc000","ID":27915}},{"type":"Feature","geometry":{"type":"Polygon","coordinates":[[[82.2675,16.6947],[82.239,16.7163],[82.2038,16.7177],[82.1934,16.7216],[82.195,16.7302],[82.1864,16.73],[82.1863,16.7371],[82.2056,16.7346],[82.2119,16.7511],[82.2199,16.7503],[82.2207,16.7575],[82.226,16.7586],[82.2281,16.7607],[82.232,16.7548],[82.2244,16.753],[82.2175,16.7328],[82.2435,16.7223],[82.2581,16.7204],[82.2704,16.7219],[82.276,16.7274],[82.2897,16.7267],[82.3055,16.7483],[82.3138,16.7294],[82.3091,16.7168],[82.2945,16.7045],[82.2675,16.6947]]]},"properties":{"STATE":"PUDUCHERRY","DISTRICT":"YANAM","AC_NAME":"YANAM","AC":"AC","YEAR":2026.0,"RES":"GEN","ELECTORS":38000.0,"VOTERS":35826.0,"TURNOUT":94.28,"MARGIN":4568.0,"MARGIN_PERCENTAGE":12.75,"PARTY_RANK1":"AINRC","PARTY_RANK2":"INC","PARTY_RANK3":"NOTA","PARTY_RANK4":"TVK","CANDIDATE_RANK1":"MALLADI KRISHNA RAO","CANDIDATE_RANK2":"GOLLAPALLI SRINIVAS ASHOK","CANDIDATE_RANK3":"NOTA","CANDIDATE_RANK4":"THOTA RAJU","VOTES_RANK1":19863.0,"VOTES_RANK2":15295.0,"VOTES_RANK3":195.0,"VOTES_RANK4":167.0,"VOTES_RANK1_PERCENTAGE":55.44,"VOTES_RANK2_PERCENTAGE":42.69,"VOTES_RANK3_PERCENTAGE":0.54,"VOTES_RANK4_PERCENTAGE":0.47,"COLOR":"#ffc000","ID":27916}}]}